start=new Date('2022-10-02T00:00:00.000Z').valueOf();
sats=[{"COUNTRY_CODE":"US","MEAN_MOTION_DDOT":"0.0000000000000","GP_ID":"213979091","MEAN_MOTION":"14.98337938","SEMIMAJOR_AXIS":"6950.168","OBJECT_ID":"2021-082B","BSTAR":"0.00009889000000","TLE_LINE2":"2 49131  70.0008 178.2827 0003299 250.7277 109.3525 14.98337938 59007","APOAPSIS":"574.326","RA_OF_ASC_NODE":"178.2827","NORAD_CAT_ID":"49131","MEAN_ANOMALY":"109.3525","EPOCH":"2022-10-01T20:57:31.672800","CENTER_NAME":"EARTH","OBJECT_NAME":"STARLINK-3096","FILE":"3588844","PERIAPSIS":"569.740","RCS_SIZE":"LARGE","ECCENTRICITY":"0.00032990","EPHEMERIS_TYPE":"0","SITE":"AFWTR","TIME_SYSTEM":"UTC","TLE_LINE1":"1 49131U 21082B   22274.87328325  .00001087  00000-0  98890-4 0  9990","INCLINATION":"70.0008","MEAN_MOTION_DOT":"0.00001087","ELEMENT_SET_NO":"999","REV_AT_EPOCH":"5900","ARG_OF_PERICENTER":"250.7277","PERIOD":"96.106","DECAY_DATE":null,"REF_FRAME":"TEME","CLASSIFICATION_TYPE":"U","LAUNCH_DATE":"2021-09-14","OBJECT_TYPE":"PAYLOAD","MEAN_ELEMENT_THEORY":"SGP4"},{"MEAN_ANOMALY":"96.4051","NORAD_CAT_ID":"49132","PERIAPSIS":"570.449","FILE":"3588844","CENTER_NAME":"EARTH","OBJECT_NAME":"STARLINK-3090","EPOCH":"2022-10-01T13:44:02.442336","TLE_LINE2":"2 49132  70.0028 219.0327 0002139 263.6864  96.4051 14.98369645 57970","BSTAR":"-0.00076386000000","OBJECT_ID":"2021-082C","SEMIMAJOR_AXIS":"6950.070","RA_OF_ASC_NODE":"219.0327","APOAPSIS":"573.422","GP_ID":"213977839","MEAN_MOTION":"14.98369645","COUNTRY_CODE":"US","MEAN_MOTION_DDOT":"0.0000000000000","LAUNCH_DATE":"2021-09-14","CLASSIFICATION_TYPE":"U","MEAN_ELEMENT_THEORY":"SGP4","OBJECT_TYPE":"PAYLOAD","DECAY_DATE":null,"PERIOD":"96.104","ARG_OF_PERICENTER":"263.6864","REV_AT_EPOCH":"5797","ELEMENT_SET_NO":"999","REF_FRAME":"TEME","TLE_LINE1":"1 49132U 21082C   22274.57225049 -.00009204  00000-0 -76386-3 0  9993","TIME_SYSTEM":"UTC","MEAN_MOTION_DOT":"-0.00009204","INCLINATION":"70.0028","RCS_SIZE":"LARGE","EPHEMERIS_TYPE":"0","SITE":"AFWTR","ECCENTRICITY":"0.00021390"},{"TLE_LINE1":"1 49133U 21082D   22274.83453541 -.00005665  00000-0 -46730-3 0  9990","TIME_SYSTEM":"UTC","MEAN_MOTION_DOT":"-0.00005665","INCLINATION":"70.0011","RCS_SIZE":"LARGE","EPHEMERIS_TYPE":"0","SITE":"AFWTR","ECCENTRICITY":"0.00033360","LAUNCH_DATE":"2021-09-14","CLASSIFICATION_TYPE":"U","MEAN_ELEMENT_THEORY":"SGP4","OBJECT_TYPE":"PAYLOAD","DECAY_DATE":null,"ARG_OF_PERICENTER":"244.3677","PERIOD":"96.107","REV_AT_EPOCH":"5801","ELEMENT_SET_NO":"999","REF_FRAME":"TEME","GP_ID":"213978589","MEAN_MOTION":"14.98333261","COUNTRY_CODE":"US","MEAN_MOTION_DDOT":"0.0000000000000","NORAD_CAT_ID":"49133","MEAN_ANOMALY":"115.7137","PERIAPSIS":"569.729","FILE":"3588844","OBJECT_NAME":"STARLINK-3077","CENTER_NAME":"EARTH","EPOCH":"2022-10-01T20:01:43.859424","TLE_LINE2":"2 49133  70.0011 218.3848 0003336 244.3677 115.7137 14.98333261 58012","BSTAR":"-0.00046730000000","SEMIMAJOR_AXIS":"6950.183","OBJECT_ID":"2021-082D","RA_OF_ASC_NODE":"218.3848","APOAPSIS":"574.366"},{"REV_AT_EPOCH":"5922","ELEMENT_SET_NO":"999","DECAY_DATE":null,"PERIOD":"96.106","ARG_OF_PERICENTER":"258.6313","REF_FRAME":"TEME","CLASSIFICATION_TYPE":"U","LAUNCH_DATE":"2021-09-14","OBJECT_TYPE":"PAYLOAD","MEAN_ELEMENT_THEORY":"SGP4","RCS_SIZE":"LARGE","ECCENTRICITY":"0.00030200","EPHEMERIS_TYPE":"0","SITE":"AFWTR","TIME_SYSTEM":"UTC","TLE_LINE1":"1 49134U 21082E   22274.89652174  .00001821  00000-0  16034-3 0  9992","MEAN_MOTION_DOT":"0.00001821","INCLINATION":"70.0015","OBJECT_ID":"2021-082E","SEMIMAJOR_AXIS":"6950.163","TLE_LINE2":"2 49134  70.0015 218.2365 0003020 258.6313 101.4507 14.98339754 59225","BSTAR":"0.00016034000000","RA_OF_ASC_NODE":"218.2365","APOAPSIS":"574.127","NORAD_CAT_ID":"49134","MEAN_ANOMALY":"101.4507","CENTER_NAME":"EARTH","OBJECT_NAME":"STARLINK-3078","EPOCH":"2022-10-01T21:30:59.478336","PERIAPSIS":"569.929","FILE":"3588844","COUNTRY_CODE":"US","MEAN_MOTION_DDOT":"0.0000000000000","GP_ID":"213978841","MEAN_MOTION":"14.98339754"},{"COUNTRY_CODE":"US","MEAN_MOTION_DDOT":"0.0000000000000","GP_ID":"213979591","MEAN_MOTION":"14.96720993","OBJECT_ID":"2021-082F","SEMIMAJOR_AXIS":"6955.173","BSTAR":"0.00019532000000","TLE_LINE2":"2 49135  70.0035 178.2695 0002803 257.4102 102.6743 14.96720993 59019","RA_OF_ASC_NODE":"178.2695","APOAPSIS":"578.988","NORAD_CAT_ID":"49135","MEAN_ANOMALY":"102.6743","CENTER_NAME":"EARTH","OBJECT_NAME":"STARLINK-3073","EPOCH":"2022-10-01T20:45:54.850752","PERIAPSIS":"575.089","FILE":"3588844","RCS_SIZE":"LARGE","ECCENTRICITY":"0.00028030","EPHEMERIS_TYPE":"0","SITE":"AFWTR","TIME_SYSTEM":"UTC","TLE_LINE1":"1 49135U 21082F   22274.86521818  .00002145  00000-0  19532-3 0  9996","INCLINATION":"70.0035","MEAN_MOTION_DOT":"0.00002145","REV_AT_EPOCH":"5901","ELEMENT_SET_NO":"999","DECAY_DATE":null,"ARG_OF_PERICENTER":"257.4102","PERIOD":"96.210","REF_FRAME":"TEME","CLASSIFICATION_TYPE":"U","LAUNCH_DATE":"2021-09-14","OBJECT_TYPE":"PAYLOAD","MEAN_ELEMENT_THEORY":"SGP4"},{"PERIAPSIS":"569.632","FILE":"3588844","OBJECT_NAME":"STARLINK-3084","CENTER_NAME":"EARTH","EPOCH":"2022-10-01T20:44:49.836480","NORAD_CAT_ID":"49136","MEAN_ANOMALY":"120.0680","RA_OF_ASC_NODE":"198.3073","APOAPSIS":"574.434","BSTAR":"0.00017405000000","TLE_LINE2":"2 49136  70.0014 198.3073 0003455 240.0137 120.0680 14.98338041 58520","SEMIMAJOR_AXIS":"6950.168","OBJECT_ID":"2021-082G","MEAN_MOTION":"14.98338041","GP_ID":"213978339","MEAN_MOTION_DDOT":"0.0000000000000","COUNTRY_CODE":"US","MEAN_ELEMENT_THEORY":"SGP4","OBJECT_TYPE":"PAYLOAD","LAUNCH_DATE":"2021-09-14","CLASSIFICATION_TYPE":"U","REF_FRAME":"TEME","DECAY_DATE":null,"ARG_OF_PERICENTER":"240.0137","PERIOD":"96.106","REV_AT_EPOCH":"5852","ELEMENT_SET_NO":"999","MEAN_MOTION_DOT":"0.00001985","INCLINATION":"70.0014","TLE_LINE1":"1 49136U 21082G   22274.86446570  .00001985  00000-0  17405-3 0  9996","TIME_SYSTEM":"UTC","EPHEMERIS_TYPE":"0","SITE":"AFWTR","ECCENTRICITY":"0.00034550","RCS_SIZE":"LARGE"},{"MEAN_MOTION":"14.98340782","GP_ID":"213978090","MEAN_MOTION_DDOT":"0.0000000000000","COUNTRY_CODE":"US","CENTER_NAME":"EARTH","OBJECT_NAME":"STARLINK-3055","EPOCH":"2022-10-01T20:37:57.738720","PERIAPSIS":"569.967","FILE":"3588844","MEAN_ANOMALY":"102.1405","NORAD_CAT_ID":"49137","RA_OF_ASC_NODE":"198.3291","APOAPSIS":"574.082","OBJECT_ID":"2021-082H","SEMIMAJOR_AXIS":"6950.160","BSTAR":"0.00020188000000","TLE_LINE2":"2 49137  70.0022 198.3291 0002960 257.9422 102.1405 14.98340782 58516","INCLINATION":"70.0022","MEAN_MOTION_DOT":"0.00002317","TIME_SYSTEM":"UTC","TLE_LINE1":"1 49137U 21082H   22274.85969605  .00002317  00000-0  20188-3 0  9997","ECCENTRICITY":"0.00029600","EPHEMERIS_TYPE":"0","SITE":"AFWTR","RCS_SIZE":"LARGE","OBJECT_TYPE":"PAYLOAD","MEAN_ELEMENT_THEORY":"SGP4","CLASSIFICATION_TYPE":"U","LAUNCH_DATE":"2021-09-14","REF_FRAME":"TEME","REV_AT_EPOCH":"5851","ELEMENT_SET_NO":"999","DECAY_DATE":null,"PERIOD":"96.106","ARG_OF_PERICENTER":"257.9422"},{"TLE_LINE1":"1 49138U 21082J   22274.89175206  .00001027  00000-0  93841-4 0  9992","TIME_SYSTEM":"UTC","MEAN_MOTION_DOT":"0.00001027","INCLINATION":"70.0018","RCS_SIZE":"LARGE","SITE":"AFWTR","EPHEMERIS_TYPE":"0","ECCENTRICITY":"0.00030160","LAUNCH_DATE":"2021-09-14","CLASSIFICATION_TYPE":"U","MEAN_ELEMENT_THEORY":"SGP4","OBJECT_TYPE":"PAYLOAD","PERIOD":"96.106","ARG_OF_PERICENTER":"235.6038","DECAY_DATE":null,"ELEMENT_SET_NO":"999","REV_AT_EPOCH":"5802","REF_FRAME":"TEME","GP_ID":"213979341","MEAN_MOTION":"14.98340872","COUNTRY_CODE":"US","MEAN_MOTION_DDOT":"0.0000000000000","NORAD_CAT_ID":"49138","MEAN_ANOMALY":"124.4836","FILE":"3588844","PERIAPSIS":"569.928","EPOCH":"2022-10-01T21:24:07.377984","CENTER_NAME":"EARTH","OBJECT_NAME":"STARLINK-3058","BSTAR":"0.00009384100000","TLE_LINE2":"2 49138  70.0018 218.2509 0003016 235.6038 124.4836 14.98340872 58026","SEMIMAJOR_AXIS":"6950.159","OBJECT_ID":"2021-082J","APOAPSIS":"574.120","RA_OF_ASC_NODE":"218.2509"},{"MEAN_MOTION_DOT":"0.00002156","INCLINATION":"70.0026","TLE_LINE1":"1 49139U 21082K   22274.85545791  .00002156  00000-0  19626-3 0  9991","TIME_SYSTEM":"UTC","SITE":"AFWTR","EPHEMERIS_TYPE":"0","ECCENTRICITY":"0.00032120","RCS_SIZE":"LARGE","MEAN_ELEMENT_THEORY":"SGP4","OBJECT_TYPE":"PAYLOAD","LAUNCH_DATE":"2021-09-14","CLASSIFICATION_TYPE":"U","REF_FRAME":"TEME","PERIOD":"96.210","ARG_OF_PERICENTER":"265.5219","DECAY_DATE":null,"ELEMENT_SET_NO":"999","REV_AT_EPOCH":"5900","MEAN_MOTION":"14.96728890","GP_ID":"213979092","MEAN_MOTION_DDOT":"0.0000000000000","COUNTRY_CODE":"US","FILE":"3588844","PERIAPSIS":"574.780","EPOCH":"2022-10-01T20:31:51.563424","CENTER_NAME":"EARTH","OBJECT_NAME":"STARLINK-3057","NORAD_CAT_ID":"49139","MEAN_ANOMALY":"94.5572","APOAPSIS":"579.248","RA_OF_ASC_NODE":"178.2928","BSTAR":"0.00019626000000","TLE_LINE2":"2 49139  70.0026 178.2928 0003212 265.5219  94.5572 14.96728890 59008","SEMIMAJOR_AXIS":"6955.149","OBJECT_ID":"2021-082K"},{"RCS_SIZE":"LARGE","ECCENTRICITY":"0.00029570","SITE":"AFWTR","EPHEMERIS_TYPE":"0","TIME_SYSTEM":"UTC","TLE_LINE1":"1 49140U 21082L   22274.84572344  .00005209  00000-0  46256-3 0  9997","MEAN_MOTION_DOT":"0.00005209","INCLINATION":"70.0016","REV_AT_EPOCH":"5900","ELEMENT_SET_NO":"999","DECAY_DATE":null,"PERIOD":"96.209","ARG_OF_PERICENTER":"257.9919","REF_FRAME":"TEME","CLASSIFICATION_TYPE":"U","LAUNCH_DATE":"2021-09-14","OBJECT_TYPE":"PAYLOAD","MEAN_ELEMENT_THEORY":"SGP4","COUNTRY_CODE":"US","MEAN_MOTION_DDOT":"0.0000000000000","GP_ID":"213977840","MEAN_MOTION":"14.96735343","SEMIMAJOR_AXIS":"6955.129","OBJECT_ID":"2021-082L","TLE_LINE2":"2 49140  70.0016 178.3161 0002957 257.9919 102.0907 14.96735343 59004","BSTAR":"0.00046256000000","RA_OF_ASC_NODE":"178.3161","APOAPSIS":"579.050","MEAN_ANOMALY":"102.0907","NORAD_CAT_ID":"49140","CENTER_NAME":"EARTH","OBJECT_NAME":"STARLINK-3118","EPOCH":"2022-10-01T20:17:50.505216","PERIAPSIS":"574.937","FILE":"3588844"}];
